{
    "links": {
        "self": "http://www.neowsapp.com/rest/v1/neo/3554641?api_key=iIulBulltgU6a56xZRHN4H3l9WmuAYTsLGpBGhQ2"
    },
    "id": "3554641",
    "neo_reference_id": "3554641",
    "name": "(2010 YS)",
    "designation": "2010 YS",
    "nasa_jpl_url": "http://ssd.jpl.nasa.gov/sbdb.cgi?sstr=3554641",
    "absolute_magnitude_h": 22.5,
    "estimated_diameter": {
        "kilometers": {
            "estimated_diameter_min": 0.0840533402,
            "estimated_diameter_max": 0.1879489824
        },
        "meters": {
            "estimated_diameter_min": 84.0533402073,
            "estimated_diameter_max": 187.9489824394
        },
        "miles": {
            "estimated_diameter_min": 0.0522283081,
            "estimated_diameter_max": 0.1167860472
        },
        "feet": {
            "estimated_diameter_min": 275.7655606856,
            "estimated_diameter_max": 616.6305395464
        }
    },
    "is_potentially_hazardous_asteroid": false,
    "close_approach_data": [
        {
            "close_approach_date": "2010-12-26",
            "close_approach_date_full": "2010-Dec-26 13:42",
            "epoch_date_close_approach": 1293370920000,
            "relative_velocity": {
                "kilometers_per_second": "12.2494529835",
                "kilometers_per_hour": "44098.03074064",
                "miles_per_hour": "27400.801378816"
            },
            "miss_distance": {
                "astronomical": "0.0185499208",
                "lunar": "7.2159191912",
                "kilometers": "2775028.640348696",
                "miles": "1724322.8392001648"
            },
            "orbiting_body": "Earth"
        }
    ],
    "orbital_data": {
        "orbit_id": "17",
        "orbit_determination_date": "2017-04-06 08:55:06",
        "first_observation_date": "2010-12-29",
        "last_observation_date": "2011-01-21",
        "data_arc_in_days": 23,
        "observations_used": 121,
        "orbit_uncertainty": "7",
        "minimum_orbit_intersection": ".0149902",
        "jupiter_tisserand_invariant": "3.245",
        "epoch_osculation": "2459000.5",
        "eccentricity": ".6048139316772391",
        "semi_major_axis": "2.37068251788216",
        "inclination": "12.30137799219394",
        "ascending_node_longitude": "98.63435446431406",
        "orbital_period": "1333.240575869328",
        "perihelion_distance": ".9368607034833542",
        "perihelion_argument": "325.0983056646655",
        "aphelion_distance": "3.804504332280965",
        "perihelion_time": "2459528.013471710213",
        "mean_anomaly": "217.5614534594773",
        "mean_motion": ".2700187846932764",
        "equinox": "J2000",
        "orbit_class": {
            "orbit_class_type": "APO",
            "orbit_class_description": "Near-Earth asteroid orbits which cross the Earth’s orbit similar to that of 1862 Apollo",
            "orbit_class_range": "a (semi-major axis) > 1.0 AU; q (perihelion) < 1.017 AU"
        }
    },
    "is_sentry_object": false
}